OBJECT_NAME,OBJECT_ID,EPOCH,MEAN_MOTION,ECCENTRICITY,INCLINATION,RA_OF_ASC_NODE,ARG_OF_PERICENTER,MEAN_ANOMALY,EPHEMERIS_TYPE,CLASSIFICATION_TYPE,NORAD_CAT_ID,ELEMENT_SET_NO,REV_AT_EPOCH,BSTAR,MEAN_MOTION_DOT,MEAN_MOTION_DDOT
STARLINK-38014,2026-147T,2026-07-05T04:00:03.000096,15.87935900,.00012905,97.2835,221.9938,66.9099,339.7786,0,U,69721,999,222,-.84845142E-2,-.1986347E-1,0
STARLINK-37915,2026-147U,2026-07-05T04:00:03.000096,15.88141713,.00013396,97.2836,221.9949,62.0270,347.6090,0,U,69722,999,222,-.83798444E-2,-.1982717E-1,0
STARLINK-38007,2026-147V,2026-07-05T04:00:03.000096,15.86705499,.0001225,97.2837,221.9936,42.8856,4.1689,0,U,69723,999,222,-.11440624E-1,-.2493808E-1,0
STARLINK-38008,2026-147W,2026-07-05T04:00:03.000096,15.88576308,.00013499,97.2838,221.9974,53.5548,1.3183,0,U,69724,999,222,-.7970109E-2,-.1891177E-1,0
STARLINK-38021,2026-147X,2026-07-05T04:00:03.000096,15.88750877,.00012197,97.2836,221.9985,63.7969,354.0922,0,U,69725,999,222,-.78611252E-2,-.1883068E-1,0
STARLINK-38015,2026-147Y,2026-07-05T04:00:03.000096,15.88968642,.00011964,97.2839,221.9996,53.4290,7.1082,0,U,69726,999,222,-.78142845E-2,-.1891079E-1,0
STARLINK-38010,2026-147Z,2026-07-05T04:00:03.000096,15.89167635,.00011704,97.2839,222.0006,56.2070,6.9701,0,U,69727,999,222,-.76807052E-2,-.1879585E-1,0
