STARLINK-38014          
1 69721U 26147T   26186.16670139 -.01986347  00000+0 -84845-2 0  9991
2 69721  97.2835 221.9938 0001290  66.9099 339.7786 15.87935900  2222
STARLINK-37915          
1 69722U 26147U   26186.16670139 -.01982717  00000+0 -83798-2 0  9995
2 69722  97.2836 221.9949 0001339  62.0270 347.6090 15.88141713  2226
STARLINK-38007          
1 69723U 26147V   26186.16670139 -.02493808  00000+0 -11441-1 0  9990
2 69723  97.2837 221.9936 0001225  42.8856   4.1689 15.86705499  2228
STARLINK-38008          
1 69724U 26147W   26186.16670139 -.01891177  00000+0 -79701-2 0  9995
2 69724  97.2838 221.9974 0001349  53.5548   1.3183 15.88576308  2221
STARLINK-38021          
1 69725U 26147X   26186.16670139 -.01883068  00000+0 -78611-2 0  9995
2 69725  97.2836 221.9985 0001219  63.7969 354.0922 15.88750877  2222
STARLINK-38015          
1 69726U 26147Y   26186.16670139 -.01891079  00000+0 -78143-2 0  9997
2 69726  97.2839 221.9996 0001196  53.4290   7.1082 15.88968642  2229
STARLINK-38010          
1 69727U 26147Z   26186.16670139 -.01879585  00000+0 -76807-2 0  9991
2 69727  97.2839 222.0006 0001170  56.2070   6.9701 15.89167635  2222
